OBJECT C                
1 57582U 23117C   24317.18052958  .00015526  00000+0  71472-3 0  9998
2 57582  97.4722  27.4919 0010793 133.8049 226.4080 15.20349693 69638
